*******************************************************************************
 Revised: July 31, 2013                  Sun                                 10

 PHYSICAL PROPERTIES (updated 2018-Aug-15):
  GM, km^3/s^2          = 132712440041.93938  Mass, 10^24 kg        = ~1988500
  Vol. mean radius, km  = 695700              Volume, 10^12 km^3    = 1412000
  Solar radius (IAU)    = 696000 km           Mean density, g/cm^3  = 1.408
  Radius (photosphere)  = 696500 km           Angular diam at 1 AU  = 1919.3"
  Photosphere temp., K  = 6600 (bottom)       Photosphere temp., K  = 4400(top)
  Photospheric depth    = ~500 km             Chromospheric depth   = ~2500 km
  Flatness, f           = 0.00005             Adopted sid. rot. per.= 25.38 d
  Surface gravity       =  274.0 m/s^2        Escape speed, km/s    =  617.7
  Pole (RA,DEC), deg.   = (286.13, 63.87)     Obliquity to ecliptic = 7.25 deg.
  Solar constant (1 AU) = 1367.6 W/m^2        Luminosity, 10^24 J/s = 382.8
  Mass-energy conv rate = 4.260 x 10^9 kg/s   Effective temp, K     = 5772
  Sunspot cycle         = 11.4 yr             Cycle 24 sunspot min. = 2008 A.D.

  Motion relative to nearby stars = apex : R.A.= 271 deg.; DEC.= +30 deg.
                                    speed: 19.4 km/s (0.0112 au/day)
  Motion relative to 2.73K BB/CBR = apex : l= 264.7 +- 0.8; b= 48.2 +- 0.5 deg.
                                    speed: 369 +-11 km/s
*******************************************************************************
 
 
*******************************************************************************
Ephemeris / WWW_USER Wed Jul 15 16:51:04 2020 Pasadena, USA      / Horizons
*******************************************************************************
Target body name: Sun (10)                        {source: DE431mx}
Center body name: Earth (399)                     {source: DE431mx}
Center-site name: BODY CENTER
*******************************************************************************
Start time      : A.D. 2018-Oct-09 16:15:34.0000 TDB
Stop  time      : A.D. 2019-Aug-18 02:15:34.0000 TDB
Step-size       : 60 minutes
*******************************************************************************
Center geodetic : 0.00000000,0.00000000,0.0000000 {E-lon(deg),Lat(deg),Alt(km)}
Center cylindric: 0.00000000,0.00000000,0.0000000 {E-lon(deg),Dxy(km),Dz(km)}
Center radii    : 6378.1 x 6378.1 x 6356.8 km     {Equator, meridian, pole}    
Output units    : KM-S
Output type     : GEOMETRIC cartesian states
Output format   : 2 (position and velocity)
EOP file        : eop.200715.p201006
EOP coverage    : DATA-BASED 1962-JAN-20 TO 2020-JUL-15. PREDICTS-> 2020-OCT-05
Reference frame : Ecliptic of J2000.0
*******************************************************************************
JDTDB
   X     Y     Z
   VX    VY    VZ
*******************************************************************************
$$SOE
2458473.177476852 = A.D. 2018-Dec-20 16:15:34.0000 TDB 
 X =-3.937719304663490E+06 Y =-1.471162503434745E+08 Z = 6.351912530578673E+03
 VX= 3.025242905529272E+01 VY=-6.797157837466345E-01 VZ= 6.508471167289698E-04
2458473.219143519 = A.D. 2018-Dec-20 17:15:34.0000 TDB 
 X =-3.828809618912875E+06 Y =-1.471186578283190E+08 Z = 6.354271213583648E+03
 VX= 3.025294937510256E+01 VY=-6.577758296500156E-01 VZ= 6.595230374958627E-04
2458473.260810185 = A.D. 2018-Dec-20 18:15:34.0000 TDB 
 X =-3.719898087460165E+06 Y =-1.471209863296880E+08 Z = 6.356661028735340E+03
 VX= 3.025345444706418E+01 VY=-6.358360755447218E-01 VZ= 6.681425321213574E-04
2458473.302476852 = A.D. 2018-Dec-20 19:15:34.0000 TDB 
 X =-3.610984765179099E+06 Y =-1.471232358483058E+08 Z = 6.359081770524383E+03
 VX= 3.025394428145128E+01 VY=-6.138965238083106E-01 VZ= 6.767042797621858E-04
2458473.344143519 = A.D. 2018-Dec-20 20:15:34.0000 TDB 
 X =-3.502069706906565E+06 Y =-1.471254063849049E+08 Z = 6.361533228680491E+03
 VX= 3.025441888846147E+01 VY=-5.919571766308627E-01 VZ= 6.852069587791609E-04
2458473.385810185 = A.D. 2018-Dec-20 21:15:34.0000 TDB 
 X =-3.393152967442885E+06 Y =-1.471274979402254E+08 Z = 6.364015188150108E+03
 VX= 3.025487827821250E+01 VY=-5.700180360151873E-01 VZ= 6.936492470588917E-04
2458473.427476852 = A.D. 2018-Dec-20 22:15:34.0000 TDB 
 X =-3.284234601552102E+06 Y =-1.471295105150143E+08 Z = 6.366527429200709E+03
 VX= 3.025532246073838E+01 VY=-5.480791037771194E-01 VZ= 7.020298223421317E-04
2458473.469143519 = A.D. 2018-Dec-20 23:15:34.0000 TDB 
 X =-3.175314663962299E+06 Y =-1.471314441100246E+08 Z = 6.369069727219641E+03
 VX= 3.025575144598561E+01 VY=-5.261403815458988E-01 VZ= 7.103473625556522E-04
2458473.510810185 = A.D. 2018-Dec-21 00:15:34.0000 TDB 
 X =-3.066393209365910E+06 Y =-1.471332987260152E+08 Z = 6.371641852982342E+03
 VX= 3.025616524380922E+01 VY=-5.042018707646454E-01 VZ= 7.186005461521650E-04
2458473.552476852 = A.D. 2018-Dec-21 01:15:34.0000 TDB 
 X =-2.957470292420065E+06 Y =-1.471350743637494E+08 Z = 6.374243572354317E+03
 VX= 3.025656386396897E+01 VY=-4.822635726909199E-01 VZ= 7.267880524533255E-04
2458473.594143519 = A.D. 2018-Dec-21 02:15:34.0000 TDB 
 X =-2.848545967746934E+06 Y =-1.471367710239951E+08 Z = 6.376874646566808E+03
 VX= 3.025694731612544E+01 VY=-4.603254883973793E-01 VZ= 7.349085619980100E-04
2458473.635810185 = A.D. 2018-Dec-21 03:15:34.0000 TDB 
 X =-2.739620289934092E+06 Y =-1.471383887075235E+08 Z = 6.379534832023084E+03
 VX= 3.025731560983611E+01 VY=-4.383876187725240E-01 VZ= 7.429607568962548E-04
2458473.677476852 = A.D. 2018-Dec-21 04:15:34.0000 TDB 
 X =-2.630693313534904E+06 Y =-1.471399274151087E+08 Z = 6.382223880454898E+03
 VX= 3.025766875455142E+01 VY=-4.164499645215399E-01 VZ= 7.509433211878302E-04
2458473.719143519 = A.D. 2018-Dec-21 05:15:34.0000 TDB 
 X =-2.521765093068905E+06 Y =-1.471413871475271E+08 Z = 6.384941538788378E+03
 VX= 3.025800675961089E+01 VY=-3.945125261672355E-01 VZ= 7.588549412046175E-04
2458473.760810185 = A.D. 2018-Dec-21 06:15:34.0000 TDB 
 X =-2.412835683022217E+06 Y =-1.471427679055566E+08 Z = 6.387687549322844E+03
 VX= 3.025832963423916E+01 VY=-3.725753040510739E-01 VZ= 7.666943059382869E-04
2458473.802476852 = A.D. 2018-Dec-21 07:15:34.0000 TDB 
 X =-2.303905137847968E+06 Y =-1.471440696899760E+08 Z = 6.390461649529636E+03
 VX= 3.025863738754207E+01 VY=-3.506382983343028E-01 VZ= 7.744601074118063E-04
2458473.844143519 = A.D. 2018-Dec-21 08:15:34.0000 TDB 
 X =-2.194973511966720E+06 Y =-1.471452925015643E+08 Z = 6.393263572238386E+03
 VX= 3.025893002850271E+01 VY=-3.287015089991823E-01 VZ= 7.821510410547794E-04
2458473.885810185 = A.D. 2018-Dec-21 09:15:34.0000 TDB 
 X =-2.086040859766926E+06 Y =-1.471464363411002E+08 Z = 6.396093045629561E+03
 VX= 3.025920756597752E+01 VY=-3.067649358503088E-01 VZ= 7.897658060832535E-04
2458473.927476852 = A.D. 2018-Dec-21 10:15:34.0000 TDB 
 X =-1.977107235605389E+06 Y =-1.471475012093614E+08 Z = 6.398949793092906E+03
 VX= 3.025947000869235E+01 VY=-2.848285785160415E-01 VZ= 7.973031058825242E-04
2458473.969143519 = A.D. 2018-Dec-21 11:15:34.0000 TDB 
 X =-1.868172693807739E+06 Y =-1.471484871071238E+08 Z = 6.401833533473313E+03
 VX= 3.025971736523855E+01 VY=-2.628924364500247E-01 VZ= 8.047616483941034E-04
2458474.010810185 = A.D. 2018-Dec-21 12:15:34.0000 TDB 
 X =-1.759237288668924E+06 Y =-1.471493940351613E+08 Z = 6.404743980914354E+03
 VX= 3.025994964406905E+01 VY=-2.409565089328119E-01 VZ= 8.121401465050887E-04
2458474.052476852 = A.D. 2018-Dec-21 13:15:34.0000 TDB 
 X =-1.650301074453721E+06 Y =-1.471502219942445E+08 Z = 6.407680844932795E+03
 VX= 3.026016685349447E+01 VY=-2.190207950735902E-01 VZ= 8.194373184414461E-04
2458474.094143519 = A.D. 2018-Dec-21 14:15:34.0000 TDB 
 X =-1.541364105397247E+06 Y =-1.471509709851409E+08 Z = 6.410643830485642E+03
 VX= 3.026036900167929E+01 VY=-1.970852938120045E-01 VZ= 8.266518881632212E-04
2458474.135810185 = A.D. 2018-Dec-21 15:15:34.0000 TDB 
 X =-1.432426435705495E+06 Y =-1.471516410086136E+08 Z = 6.413632637880743E+03
 VX= 3.026055609663794E+01 VY=-1.751500039200824E-01 VZ= 8.337825857632208E-04
2458474.177476852 = A.D. 2018-Dec-21 16:15:34.0000 TDB 
 X =-1.323488119555886E+06 Y =-1.471522320654211E+08 Z = 6.416646962933242E+03
 VX= 3.026072814623103E+01 VY=-1.532149240042609E-01 VZ= 8.408281478675395E-04
2458474.219143519 = A.D. 2018-Dec-21 17:15:34.0000 TDB 
 X =-1.214549211097822E+06 Y =-1.471527441563165E+08 Z = 6.419686496861279E+03
 VX= 3.026088515816148E+01 VY=-1.312800525075130E-01 VZ= 8.477873180380568E-04
2458474.260810185 = A.D. 2018-Dec-21 18:15:34.0000 TDB 
 X =-1.105609764453263E+06 Y =-1.471531772820472E+08 Z = 6.422750926472247E+03
 VX= 3.026102713997076E+01 VY=-1.093453877115736E-01 VZ= 8.546588471769132E-04
2458474.302476852 = A.D. 2018-Dec-21 19:15:34.0000 TDB 
 X =-9.966698337173192E+05 Y =-1.471535314433539E+08 Z = 6.425839933909476E+03
 VX= 3.026115409903521E+01 VY=-8.741092773927051E-02 VZ= 8.614414939330135E-04
2458474.344143519 = A.D. 2018-Dec-21 20:15:34.0000 TDB 
 X =-8.877294729588475E+05 Y =-1.471538066409703E+08 Z = 6.428953197069466E+03
 VX= 3.026126604256223E+01 VY=-6.547667055694943E-02 VZ= 8.681340251092511E-04
2458474.385810185 = A.D. 2018-Dec-21 21:15:34.0000 TDB 
 X =-7.787887362210667E+05 Y =-1.471540028756226E+08 Z = 6.432090389288962E+03
 VX= 3.026136297758670E+01 VY=-4.354261397700389E-02 VZ= 8.747352160712474E-04
2458474.427476852 = A.D. 2018-Dec-21 22:15:34.0000 TDB 
 X =-6.698476775221875E+05 Y =-1.471541201480289E+08 Z = 6.435251179561019E+03
 VX= 3.026144491096725E+01 VY=-2.160875566050137E-02 VZ= 8.812438511564711E-04
2458474.469143519 = A.D. 2018-Dec-21 23:15:34.0000 TDB 
 X =-5.609063508560536E+05 Y =-1.471541584588984E+08 Z = 6.438435232520103E+03
 VX= 3.026151184938278E+01 VY= 3.249068800902797E-04 VZ= 8.876587240842708E-04
